{
    "links": {
        "self": "http://www.neowsapp.com/rest/v1/neo/3841711?api_key=iIulBulltgU6a56xZRHN4H3l9WmuAYTsLGpBGhQ2"
    },
    "id": "3841711",
    "neo_reference_id": "3841711",
    "name": "(2019 JP1)",
    "designation": "2019 JP1",
    "nasa_jpl_url": "http://ssd.jpl.nasa.gov/sbdb.cgi?sstr=3841711",
    "absolute_magnitude_h": 27.4,
    "estimated_diameter": {
        "kilometers": {
            "estimated_diameter_min": 0.0088014652,
            "estimated_diameter_max": 0.0196806745
        },
        "meters": {
            "estimated_diameter_min": 8.801465209,
            "estimated_diameter_max": 19.6806745089
        },
        "miles": {
            "estimated_diameter_min": 0.0054689752,
            "estimated_diameter_max": 0.0122290004
        },
        "feet": {
            "estimated_diameter_min": 28.8761991163,
            "estimated_diameter_max": 64.5691441559
        }
    },
    "is_potentially_hazardous_asteroid": false,
    "close_approach_data": [
        {
            "close_approach_date": "2019-04-26",
            "close_approach_date_full": "2019-Apr-26 10:28",
            "epoch_date_close_approach": 1556274480000,
            "relative_velocity": {
                "kilometers_per_second": "4.2500923393",
                "kilometers_per_hour": "15300.3324214297",
                "miles_per_hour": "9507.0315537489"
            },
            "miss_distance": {
                "astronomical": "0.030854992",
                "lunar": "12.002591888",
                "kilometers": "4615841.08206704",
                "miles": "2868150.650483552"
            },
            "orbiting_body": "Earth"
        }
    ],
    "orbital_data": {
        "orbit_id": "2",
        "orbit_determination_date": "2019-05-06 07:16:59",
        "first_observation_date": "2019-05-02",
        "last_observation_date": "2019-05-06",
        "data_arc_in_days": 4,
        "observations_used": 23,
        "orbit_uncertainty": "8",
        "minimum_orbit_intersection": ".0273714",
        "jupiter_tisserand_invariant": "4.496",
        "epoch_osculation": "2458606.5",
        "eccentricity": ".3130159289610985",
        "semi_major_axis": "1.496288088228017",
        "inclination": "1.384840803615904",
        "ascending_node_longitude": "54.55243237803509",
        "orbital_period": "668.5305448204085",
        "perihelion_distance": "1.027926082297898",
        "perihelion_argument": "147.6568652911542",
        "aphelion_distance": "1.964650094158136",
        "perihelion_time": "2458588.025568944199",
        "mean_anomaly": "9.948378920928741",
        "mean_motion": ".5384944678880887",
        "equinox": "J2000",
        "orbit_class": {
            "orbit_class_type": "AMO",
            "orbit_class_description": "Near-Earth asteroid orbits similar to that of 1221 Amor",
            "orbit_class_range": "1.017 AU < q (perihelion) < 1.3 AU"
        }
    },
    "is_sentry_object": false
}